GALASSIA                
1 41170U 15077E   17345.19351904  .00001806  00000-0  62150-4 0  9998
2 41170  14.9895 311.1441 0013296 330.1388  29.8174 15.12704377109911
